[{"OBJECT_NAME":"ONEWEB-0142","OBJECT_ID":"2020-100AG","EPOCH":"2025-08-08T14:00:25.740000","MEAN_MOTION":13.12444714,"ECCENTRICITY":0.0001385,"INCLINATION":87.8861,"RA_OF_ASC_NODE":52.802,"ARG_OF_PERICENTER":94.8514,"MEAN_ANOMALY":265.2772,"EPHEMERIS_TYPE":0,"CLASSIFICATION_TYPE":"U","NORAD_CAT_ID":47288,"ELEMENT_SET_NO":999,"REV_AT_EPOCH":22366,"BSTAR":0.00018237,"MEAN_MOTION_DOT":7.8e-7,"MEAN_MOTION_DDOT":0},{"OBJECT_NAME":"ONEWEB-0143","OBJECT_ID":"2020-100AH","EPOCH":"2025-08-08T14:14:14.702208","MEAN_MOTION":13.12443169,"ECCENTRICITY":0.0001786,"INCLINATION":87.886,"RA_OF_ASC_NODE":52.7978,"ARG_OF_PERICENTER":87.8256,"MEAN_ANOMALY":272.3077,"EPHEMERIS_TYPE":0,"CLASSIFICATION_TYPE":"U","NORAD_CAT_ID":47289,"ELEMENT_SET_NO":999,"REV_AT_EPOCH":22364,"BSTAR":0.0010251,"MEAN_MOTION_DOT":3.82e-6,"MEAN_MOTION_DDOT":0},{"OBJECT_NAME":"ONEWEB-0144","OBJECT_ID":"2020-100AJ","EPOCH":"2025-08-08T13:34:31.390176","MEAN_MOTION":13.12443078,"ECCENTRICITY":0.0001464,"INCLINATION":87.885,"RA_OF_ASC_NODE":52.7816,"ARG_OF_PERICENTER":86.3345,"MEAN_ANOMALY":273.7951,"EPHEMERIS_TYPE":0,"CLASSIFICATION_TYPE":"U","NORAD_CAT_ID":47290,"ELEMENT_SET_NO":999,"REV_AT_EPOCH":22356,"BSTAR":-0.0010111,"MEAN_MOTION_DOT":-3.51e-6,"MEAN_MOTION_DDOT":0},{"OBJECT_NAME":"ONEWEB-0145","OBJECT_ID":"2020-100AK","EPOCH":"2025-08-08T14:42:16.060896","MEAN_MOTION":13.12441555,"ECCENTRICITY":0.0001662,"INCLINATION":87.8859,"RA_OF_ASC_NODE":52.8002,"ARG_OF_PERICENTER":84.9097,"MEAN_ANOMALY":275.2221,"EPHEMERIS_TYPE":0,"CLASSIFICATION_TYPE":"U","NORAD_CAT_ID":47291,"ELEMENT_SET_NO":999,"REV_AT_EPOCH":22376,"BSTAR":0.0006987,"MEAN_MOTION_DOT":2.64e-6,"MEAN_MOTION_DDOT":0},{"OBJECT_NAME":"ONEWEB-0146","OBJECT_ID":"2020-100AL","EPOCH":"2025-08-08T12:47:48.863616","MEAN_MOTION":13.12442517,"ECCENTRICITY":0.0002111,"INCLINATION":87.8856,"RA_OF_ASC_NODE":52.8031,"ARG_OF_PERICENTER":89.2583,"MEAN_ANOMALY":270.8788,"EPHEMERIS_TYPE":0,"CLASSIFICATION_TYPE":"U","NORAD_CAT_ID":47292,"ELEMENT_SET_NO":999,"REV_AT_EPOCH":22366,"BSTAR":0.00093122,"MEAN_MOTION_DOT":3.48e-6,"MEAN_MOTION_DDOT":0},{"OBJECT_NAME":"ONEWEB-0147","OBJECT_ID":"2020-100AM","EPOCH":"2025-08-08T13:48:31.910112","MEAN_MOTION":13.12444646,"ECCENTRICITY":0.0001705,"INCLINATION":87.8855,"RA_OF_ASC_NODE":52.7732,"ARG_OF_PERICENTER":78.5418,"MEAN_ANOMALY":281.5902,"EPHEMERIS_TYPE":0,"CLASSIFICATION_TYPE":"U","NORAD_CAT_ID":47293,"ELEMENT_SET_NO":999,"REV_AT_EPOCH":22356,"BSTAR":-0.00073251,"MEAN_MOTION_DOT":-2.51e-6,"MEAN_MOTION_DDOT":0},{"OBJECT_NAME":"ONEWEB-0115","OBJECT_ID":"2021-025A","EPOCH":"2025-08-08T11:12:02.571552","MEAN_MOTION":13.13469221,"ECCENTRICITY":0.0001832,"INCLINATION":87.8977,"RA_OF_ASC_NODE":22.335,"ARG_OF_PERICENTER":93.6353,"MEAN_ANOMALY":266.4986,"EPHEMERIS_TYPE":0,"CLASSIFICATION_TYPE":"U","NORAD_CAT_ID":48042,"ELEMENT_SET_NO":999,"REV_AT_EPOCH":21254,"BSTAR":-0.00042367,"MEAN_MOTION_DOT":-1.42e-6,"MEAN_MOTION_DDOT":0},{"OBJECT_NAME":"ONEWEB-0152","OBJECT_ID":"2021-025B","EPOCH":"2025-08-08T09:41:49.975296","MEAN_MOTION":13.13470178,"ECCENTRICITY":0.0001902,"INCLINATION":87.8975,"RA_OF_ASC_NODE":22.3617,"ARG_OF_PERICENTER":92.0924,"MEAN_ANOMALY":268.0423,"EPHEMERIS_TYPE":0,"CLASSIFICATION_TYPE":"U","NORAD_CAT_ID":48043,"ELEMENT_SET_NO":999,"REV_AT_EPOCH":21249,"BSTAR":-0.00071728,"MEAN_MOTION_DOT":-2.49e-6,"MEAN_MOTION_DDOT":0},{"OBJECT_NAME":"ONEWEB-0153","OBJECT_ID":"2021-025C","EPOCH":"2025-08-08T12:49:32.747520","MEAN_MOTION":13.13468721,"ECCENTRICITY":0.0001746,"INCLINATION":87.898,"RA_OF_ASC_NODE":22.3344,"ARG_OF_PERICENTER":94.5101,"MEAN_ANOMALY":265.6228,"EPHEMERIS_TYPE":0,"CLASSIFICATION_TYPE":"U","NORAD_CAT_ID":48044,"ELEMENT_SET_NO":999,"REV_AT_EPOCH":21250,"BSTAR":0.00014692,"MEAN_MOTION_DOT":6.6e-7,"MEAN_MOTION_DDOT":0},{"OBJECT_NAME":"ONEWEB-0154","OBJECT_ID":"2021-025D","EPOCH":"2025-08-08T09:05:16.405440","MEAN_MOTION":13.13469341,"ECCENTRICITY":0.0001777,"INCLINATION":87.8975,"RA_OF_ASC_NODE":22.3639,"ARG_OF_PERICENTER":91.1748,"MEAN_ANOMALY":268.9585,"EPHEMERIS_TYPE":0,"CLASSIFICATION_TYPE":"U","NORAD_CAT_ID":48045,"ELEMENT_SET_NO":999,"REV_AT_EPOCH":21244,"BSTAR":0.00042044,"MEAN_MOTION_DOT":1.66e-6,"MEAN_MOTION_DDOT":0},{"OBJECT_NAME":"ONEWEB-0116","OBJECT_ID":"2021-025E","EPOCH":"2025-08-08T11:51:01.993248","MEAN_MOTION":13.13470792,"ECCENTRICITY":0.0001931,"INCLINATION":87.8977,"RA_OF_ASC_NODE":22.3219,"ARG_OF_PERICENTER":92.2485,"MEAN_ANOMALY":267.8866,"EPHEMERIS_TYPE":0,"CLASSIFICATION_TYPE":"U","NORAD_CAT_ID":48046,"ELEMENT_SET_NO":999,"REV_AT_EPOCH":21260,"BSTAR":-7.4107e-5,"MEAN_MOTION_DOT":-1.4e-7,"MEAN_MOTION_DDOT":0},{"OBJECT_NAME":"ONEWEB-0150","OBJECT_ID":"2021-025F","EPOCH":"2025-08-08T05:47:48.897024","MEAN_MOTION":13.13470029,"ECCENTRICITY":0.0001751,"INCLINATION":87.8977,"RA_OF_ASC_NODE":22.3674,"ARG_OF_PERICENTER":99.5765,"MEAN_ANOMALY":260.5562,"EPHEMERIS_TYPE":0,"CLASSIFICATION_TYPE":"U","NORAD_CAT_ID":48047,"ELEMENT_SET_NO":999,"REV_AT_EPOCH":21246,"BSTAR":-0.00068224,"MEAN_MOTION_DOT":-2.36e-6,"MEAN_MOTION_DDOT":0},{"OBJECT_NAME":"ONEWEB-0107","OBJECT_ID":"2021-025G","EPOCH":"2025-08-08T09:29:38.582016","MEAN_MOTION":13.13469797,"ECCENTRICITY":0.000145,"INCLINATION":87.8976,"RA_OF_ASC_NODE":22.3349,"ARG_OF_PERICENTER":92.5562,"MEAN_ANOMALY":267.5733,"EPHEMERIS_TYPE":0,"CLASSIFICATION_TYPE":"U","NORAD_CAT_ID":48048,"ELEMENT_SET_NO":999,"REV_AT_EPOCH":21246,"BSTAR":-0.00061513,"MEAN_MOTION_DOT":-2.12e-6,"MEAN_MOTION_DDOT":0},{"OBJECT_NAME":"ONEWEB-0101","OBJECT_ID":"2021-025H","EPOCH":"2025-08-08T10:25:42.209184","MEAN_MOTION":13.13469233,"ECCENTRICITY":0.0001693,"INCLINATION":87.8976,"RA_OF_ASC_NODE":22.3671,"ARG_OF_PERICENTER":89.1168,"MEAN_ANOMALY":271.0155,"EPHEMERIS_TYPE":0,"CLASSIFICATION_TYPE":"U","NORAD_CAT_ID":48049,"ELEMENT_SET_NO":999,"REV_AT_EPOCH":21244,"BSTAR":0.00098485,"MEAN_MOTION_DOT":3.72e-6,"MEAN_MOTION_DDOT":0},{"OBJECT_NAME":"ONEWEB-0113","OBJECT_ID":"2021-025J","EPOCH":"2025-08-08T11:59:43.829376","MEAN_MOTION":13.13976659,"ECCENTRICITY":0.0001915,"INCLINATION":87.8974,"RA_OF_ASC_NODE":22.3009,"ARG_OF_PERICENTER":94.903,"MEAN_ANOMALY":265.2318,"EPHEMERIS_TYPE":0,"CLASSIFICATION_TYPE":"U","NORAD_CAT_ID":48050,"ELEMENT_SET_NO":999,"REV_AT_EPOCH":21254,"BSTAR":0.00015573,"MEAN_MOTION_DOT":7.0e-7,"MEAN_MOTION_DDOT":0},{"OBJECT_NAME":"ONEWEB-0112","OBJECT_ID":"2021-025K","EPOCH":"2025-08-08T09:36:57.617568","MEAN_MOTION":13.1346983,"ECCENTRICITY":0.0001761,"INCLINATION":87.8976,"RA_OF_ASC_NODE":22.3303,"ARG_OF_PERICENTER":96.2969,"MEAN_ANOMALY":263.8361,"EPHEMERIS_TYPE":0,"CLASSIFICATION_TYPE":"U","NORAD_CAT_ID":48051,"ELEMENT_SET_NO":999,"REV_AT_EPOCH":21253,"BSTAR":-0.0006762,"MEAN_MOTION_DOT":-2.34e-6,"MEAN_MOTION_DDOT":0},{"OBJECT_NAME":"ONEWEB-0156","OBJECT_ID":"2021-025L","EPOCH":"2025-08-08T11:38:50.342496","MEAN_MOTION":13.13470534,"ECCENTRICITY":0.0001678,"INCLINATION":87.8975,"RA_OF_ASC_NODE":22.3258,"ARG_OF_PERICENTER":96.5915,"MEAN_ANOMALY":263.5405,"EPHEMERIS_TYPE":0,"CLASSIFICATION_TYPE":"U","NORAD_CAT_ID":48052,"ELEMENT_SET_NO":999,"REV_AT_EPOCH":21252,"BSTAR":-0.00061245,"MEAN_MOTION_DOT":-2.11e-6,"MEAN_MOTION_DDOT":0}]
