ONEWEB-0142             
1 47288U 20100AG  25220.58363125  .00000078  00000+0  18237-3 0  9994
2 47288  87.8861  52.8020 0001385  94.8514 265.2772 13.12444714223665
ONEWEB-0143             
1 47289U 20100AH  25220.59322572  .00000382  00000+0  10251-2 0  9992
2 47289  87.8860  52.7978 0001786  87.8256 272.3077 13.12443169223644
ONEWEB-0144             
1 47290U 20100AJ  25220.56564109 -.00000351  00000+0 -10111-2 0  9998
2 47290  87.8850  52.7816 0001464  86.3345 273.7951 13.12443078223568
ONEWEB-0145             
1 47291U 20100AK  25220.61268589  .00000264  00000+0  69870-3 0  9996
2 47291  87.8859  52.8002 0001662  84.9097 275.2221 13.12441555223761
ONEWEB-0146             
1 47292U 20100AL  25220.53320444  .00000348  00000+0  93122-3 0  9997
2 47292  87.8856  52.8031 0002111  89.2583 270.8788 13.12442517223666
ONEWEB-0147             
1 47293U 20100AM  25220.57536933 -.00000251  00000+0 -73251-3 0  9990
2 47293  87.8855  52.7732 0001705  78.5418 281.5902 13.12444646223560
ONEWEB-0115             
1 48042U 21025A   25220.46669643 -.00000142  00000+0 -42367-3 0  9996
2 48042  87.8977  22.3350 0001832  93.6353 266.4986 13.13469221212541
ONEWEB-0152             
1 48043U 21025B   25220.40405064 -.00000249  00000+0 -71728-3 0  9997
2 48043  87.8975  22.3617 0001902  92.0924 268.0423 13.13470178212492
ONEWEB-0153             
1 48044U 21025C   25220.53440680  .00000066  00000+0  14692-3 0  9997
2 48044  87.8980  22.3344 0001746  94.5101 265.6228 13.13468721212505
ONEWEB-0154             
1 48045U 21025D   25220.37866210  .00000166  00000+0  42044-3 0  9994
2 48045  87.8975  22.3639 0001777  91.1748 268.9585 13.13469341212445
ONEWEB-0116             
1 48046U 21025E   25220.49377307 -.00000014  00000+0 -74107-4 0  9992
2 48046  87.8977  22.3219 0001931  92.2485 267.8866 13.13470792212604
ONEWEB-0150             
1 48047U 21025F   25220.24153816 -.00000236  00000+0 -68224-3 0  9991
2 48047  87.8977  22.3674 0001751  99.5765 260.5562 13.13470029212461
ONEWEB-0107             
1 48048U 21025G   25220.39558544 -.00000212  00000+0 -61513-3 0  9993
2 48048  87.8976  22.3349 0001450  92.5562 267.5733 13.13469797212461
ONEWEB-0101             
1 48049U 21025H   25220.43451631  .00000372  00000+0  98485-3 0  9991
2 48049  87.8976  22.3671 0001693  89.1168 271.0155 13.13469233212444
ONEWEB-0113             
1 48050U 21025J   25220.49981284  .00000070  00000+0  15573-3 0  9993
2 48050  87.8974  22.3009 0001915  94.9030 265.2318 13.13976659212540
ONEWEB-0112             
1 48051U 21025K   25220.40066687 -.00000234  00000+0 -67620-3 0  9990
2 48051  87.8976  22.3303 0001761  96.2969 263.8361 13.13469830212534
ONEWEB-0156             
1 48052U 21025L   25220.48530489 -.00000211  00000+0 -61245-3 0  9997
2 48052  87.8975  22.3258 0001678  96.5915 263.5405 13.13470534212522
